ALOS (DAICHI)           
1 28931U 06002A   26032.48874194  .00001373  00000+0  23896-3 0  9993
2 28931  98.1159 348.6434 0002136  72.6823 287.4616 14.69683195 68167
H-2A R/B                
1 28932U 06002B   26032.37371848  .00006186  00000+0  31758-3 0  9993
2 28932  98.2348 176.3131 0053358   6.0818 354.1048 15.15685228 88935
RESURS-DK 1             
1 29228U 06021A   26032.23068179  .00002848  00000+0  16923-3 0  9996
2 29228  69.9352 331.3156 0005053 211.3539 148.7326 15.12515524 82011
CZ-4B R/B               
1 29507U 06046C   26031.99345037  .00004788  00000+0  24574-3 0  9992
2 29507  97.5665  76.9979 0034436  37.0809 323.2793 15.16494872 54484
CZ-2C R/B               
1 31114U 07010B   26032.30307343  .00000119  00000+0  73579-4 0  9999
2 31114  98.3971 147.4099 0059669  40.9375 319.6260 14.20233096974553
COSMO-SKYMED 1          
1 31598U 07023A   26032.48834750  .00003066  00000+0  27696-3 0  9997
2 31598  97.8858 223.2397 0001443  79.8277 280.3106 14.96241031  9496
COSMOS 2428             
1 31792U 07029A   26032.14588335  .00000399  00000+0  23969-3 0  9992
2 31792  70.9400 280.0552 0006784 317.9200  42.1399 14.12926585958938
SL-16 R/B               
1 31793U 07029B   26032.31618324  .00000274  00000+0  16701-3 0  9992
2 31793  70.9730 248.8439 0001812 272.7396 260.2493 14.14824553960229
KORONAS-FOTON           
1 33504U 09003A   26032.24934374  .00009403  00000+0  21677-3 0  9997
2 33504  82.4331 313.7291 0009111 294.4960  65.5336 15.42374102940123
CZ-2C R/B               
1 37731U 11030B   26032.47930447  .00001477  00000+0  19241-3 0  9995
2 37731  97.8483 350.4880 0054124 107.6273   7.1950 14.81079639784731
H-2A R/B                
1 38341U 12025E   26032.45255833  .00003592  00000+0  32908-3 0  9990
2 38341  98.4672 356.6260 0046506  71.8971 288.7304 14.94844249742801
SHIJIAN-16 (SJ-16)      
1 39358U 13057A   26032.56026943  .00001622  00000+0  16155-3 0  9993
2 39358  74.9713 253.4808 0017210 201.9180 158.1275 14.92221665666110
