CCSDS_OMM_VERS = 2.0
CREATION_DATE  = 
ORIGINATOR     = 

OBJECT_NAME    = ALOS (DAICHI)
OBJECT_ID      = 2006-002A
CENTER_NAME    = EARTH
REF_FRAME      = TEME
TIME_SYSTEM    = UTC
MEAN_ELEMENT_THEORY = SGP/SGP4

EPOCH          = 2026-02-01T11:43:47.303616
MEAN_MOTION    = 14.69683195
ECCENTRICITY   = .0002136
INCLINATION    = 98.1159
RA_OF_ASC_NODE = 348.6434
ARG_OF_PERICENTER = 72.6823
MEAN_ANOMALY   = 287.4616

EPHEMERIS_TYPE = 0
CLASSIFICATION_TYPE = U
NORAD_CAT_ID   = 28931
ELEMENT_SET_NO = 999
REV_AT_EPOCH   = 6816
BSTAR          = .23896E-3
MEAN_MOTION_DOT = .1373E-4
MEAN_MOTION_DDOT = 0

CCSDS_OMM_VERS = 2.0
CREATION_DATE  = 
ORIGINATOR     = 

OBJECT_NAME    = H-2A R/B
OBJECT_ID      = 2006-002B
CENTER_NAME    = EARTH
REF_FRAME      = TEME
TIME_SYSTEM    = UTC
MEAN_ELEMENT_THEORY = SGP/SGP4

EPOCH          = 2026-02-01T08:58:09.276672
MEAN_MOTION    = 15.15685228
ECCENTRICITY   = .0053358
INCLINATION    = 98.2348
RA_OF_ASC_NODE = 176.3131
ARG_OF_PERICENTER = 6.0818
MEAN_ANOMALY   = 354.1048

EPHEMERIS_TYPE = 0
CLASSIFICATION_TYPE = U
NORAD_CAT_ID   = 28932
ELEMENT_SET_NO = 999
REV_AT_EPOCH   = 8893
BSTAR          = .31758E-3
MEAN_MOTION_DOT = .6186E-4
MEAN_MOTION_DDOT = 0

CCSDS_OMM_VERS = 2.0
CREATION_DATE  = 
ORIGINATOR     = 

OBJECT_NAME    = RESURS-DK 1
OBJECT_ID      = 2006-021A
CENTER_NAME    = EARTH
REF_FRAME      = TEME
TIME_SYSTEM    = UTC
MEAN_ELEMENT_THEORY = SGP/SGP4

EPOCH          = 2026-02-01T05:32:10.906656
MEAN_MOTION    = 15.12515524
ECCENTRICITY   = .0005053
INCLINATION    = 69.9352
RA_OF_ASC_NODE = 331.3156
ARG_OF_PERICENTER = 211.3539
MEAN_ANOMALY   = 148.7326

EPHEMERIS_TYPE = 0
CLASSIFICATION_TYPE = U
NORAD_CAT_ID   = 29228
ELEMENT_SET_NO = 999
REV_AT_EPOCH   = 8201
BSTAR          = .16923E-3
MEAN_MOTION_DOT = .2848E-4
MEAN_MOTION_DDOT = 0

CCSDS_OMM_VERS = 2.0
CREATION_DATE  = 
ORIGINATOR     = 

OBJECT_NAME    = CZ-4B R/B
OBJECT_ID      = 2006-046C
CENTER_NAME    = EARTH
REF_FRAME      = TEME
TIME_SYSTEM    = UTC
MEAN_ELEMENT_THEORY = SGP/SGP4

EPOCH          = 2026-01-31T23:50:34.111968
MEAN_MOTION    = 15.16494872
ECCENTRICITY   = .00344363
INCLINATION    = 97.5665
RA_OF_ASC_NODE = 76.9979
ARG_OF_PERICENTER = 37.0809
MEAN_ANOMALY   = 323.2793

EPHEMERIS_TYPE = 0
CLASSIFICATION_TYPE = U
NORAD_CAT_ID   = 29507
ELEMENT_SET_NO = 999
REV_AT_EPOCH   = 5448
BSTAR          = .24573532E-3
MEAN_MOTION_DOT = .4788E-4
MEAN_MOTION_DDOT = 0

CCSDS_OMM_VERS = 2.0
CREATION_DATE  = 
ORIGINATOR     = 

OBJECT_NAME    = CZ-2C R/B
OBJECT_ID      = 2007-010B
CENTER_NAME    = EARTH
REF_FRAME      = TEME
TIME_SYSTEM    = UTC
MEAN_ELEMENT_THEORY = SGP/SGP4

EPOCH          = 2026-02-01T07:16:25.544352
MEAN_MOTION    = 14.20233096
ECCENTRICITY   = .0059669
INCLINATION    = 98.3971
RA_OF_ASC_NODE = 147.4099
ARG_OF_PERICENTER = 40.9375
MEAN_ANOMALY   = 319.6260

EPHEMERIS_TYPE = 0
CLASSIFICATION_TYPE = U
NORAD_CAT_ID   = 31114
ELEMENT_SET_NO = 999
REV_AT_EPOCH   = 97455
BSTAR          = .73579E-4
MEAN_MOTION_DOT = .119E-5
MEAN_MOTION_DDOT = 0

CCSDS_OMM_VERS = 2.0
CREATION_DATE  = 
ORIGINATOR     = 

OBJECT_NAME    = COSMO-SKYMED 1
OBJECT_ID      = 2007-023A
CENTER_NAME    = EARTH
REF_FRAME      = TEME
TIME_SYSTEM    = UTC
MEAN_ELEMENT_THEORY = SGP/SGP4

EPOCH          = 2026-02-01T11:43:13.224000
MEAN_MOTION    = 14.96241031
ECCENTRICITY   = .0001443
INCLINATION    = 97.8858
RA_OF_ASC_NODE = 223.2397
ARG_OF_PERICENTER = 79.8277
MEAN_ANOMALY   = 280.3106

EPHEMERIS_TYPE = 0
CLASSIFICATION_TYPE = U
NORAD_CAT_ID   = 31598
ELEMENT_SET_NO = 999
REV_AT_EPOCH   = 949
BSTAR          = .27696E-3
MEAN_MOTION_DOT = .3066E-4
MEAN_MOTION_DDOT = 0

CCSDS_OMM_VERS = 2.0
CREATION_DATE  = 
ORIGINATOR     = 

OBJECT_NAME    = COSMOS 2428
OBJECT_ID      = 2007-029A
CENTER_NAME    = EARTH
REF_FRAME      = TEME
TIME_SYSTEM    = UTC
MEAN_ELEMENT_THEORY = SGP/SGP4

EPOCH          = 2026-02-01T03:30:04.321440
MEAN_MOTION    = 14.12926585
ECCENTRICITY   = .00067842
INCLINATION    = 70.9400
RA_OF_ASC_NODE = 280.0552
ARG_OF_PERICENTER = 317.9200
MEAN_ANOMALY   = 42.1399

EPHEMERIS_TYPE = 0
CLASSIFICATION_TYPE = U
NORAD_CAT_ID   = 31792
ELEMENT_SET_NO = 999
REV_AT_EPOCH   = 95893
BSTAR          = .23969244E-3
MEAN_MOTION_DOT = .399E-5
MEAN_MOTION_DDOT = 0

CCSDS_OMM_VERS = 2.0
CREATION_DATE  = 
ORIGINATOR     = 

OBJECT_NAME    = SL-16 R/B
OBJECT_ID      = 2007-029B
CENTER_NAME    = EARTH
REF_FRAME      = TEME
TIME_SYSTEM    = UTC
MEAN_ELEMENT_THEORY = SGP/SGP4

EPOCH          = 2026-02-01T07:35:18.231936
MEAN_MOTION    = 14.14824553
ECCENTRICITY   = .0001812
INCLINATION    = 70.9730
RA_OF_ASC_NODE = 248.8439
ARG_OF_PERICENTER = 272.7396
MEAN_ANOMALY   = 260.2493

EPHEMERIS_TYPE = 0
CLASSIFICATION_TYPE = U
NORAD_CAT_ID   = 31793
ELEMENT_SET_NO = 999
REV_AT_EPOCH   = 96022
BSTAR          = .16701E-3
MEAN_MOTION_DOT = .274E-5
MEAN_MOTION_DDOT = 0

CCSDS_OMM_VERS = 2.0
CREATION_DATE  = 
ORIGINATOR     = 

OBJECT_NAME    = KORONAS-FOTON
OBJECT_ID      = 2009-003A
CENTER_NAME    = EARTH
REF_FRAME      = TEME
TIME_SYSTEM    = UTC
MEAN_ELEMENT_THEORY = SGP/SGP4

EPOCH          = 2026-02-01T05:59:03.299136
MEAN_MOTION    = 15.42374102
ECCENTRICITY   = .0009111
INCLINATION    = 82.4331
RA_OF_ASC_NODE = 313.7291
ARG_OF_PERICENTER = 294.4960
MEAN_ANOMALY   = 65.5336

EPHEMERIS_TYPE = 0
CLASSIFICATION_TYPE = U
NORAD_CAT_ID   = 33504
ELEMENT_SET_NO = 999
REV_AT_EPOCH   = 94012
BSTAR          = .21677E-3
MEAN_MOTION_DOT = .9403E-4
MEAN_MOTION_DDOT = 0

CCSDS_OMM_VERS = 2.0
CREATION_DATE  = 
ORIGINATOR     = 

OBJECT_NAME    = CZ-2C R/B
OBJECT_ID      = 2011-030B
CENTER_NAME    = EARTH
REF_FRAME      = TEME
TIME_SYSTEM    = UTC
MEAN_ELEMENT_THEORY = SGP/SGP4

EPOCH          = 2026-02-01T11:30:11.906208
MEAN_MOTION    = 14.81079639
ECCENTRICITY   = .0054124
INCLINATION    = 97.8483
RA_OF_ASC_NODE = 350.4880
ARG_OF_PERICENTER = 107.6273
MEAN_ANOMALY   = 7.1950

EPHEMERIS_TYPE = 0
CLASSIFICATION_TYPE = U
NORAD_CAT_ID   = 37731
ELEMENT_SET_NO = 999
REV_AT_EPOCH   = 78473
BSTAR          = .19241E-3
MEAN_MOTION_DOT = .1477E-4
MEAN_MOTION_DDOT = 0

CCSDS_OMM_VERS = 2.0
CREATION_DATE  = 
ORIGINATOR     = 

OBJECT_NAME    = H-2A R/B
OBJECT_ID      = 2012-025E
CENTER_NAME    = EARTH
REF_FRAME      = TEME
TIME_SYSTEM    = UTC
MEAN_ELEMENT_THEORY = SGP/SGP4

EPOCH          = 2026-02-01T10:51:41.039712
MEAN_MOTION    = 14.94844249
ECCENTRICITY   = .0046506
INCLINATION    = 98.4672
RA_OF_ASC_NODE = 356.6260
ARG_OF_PERICENTER = 71.8971
MEAN_ANOMALY   = 288.7304

EPHEMERIS_TYPE = 0
CLASSIFICATION_TYPE = U
NORAD_CAT_ID   = 38341
ELEMENT_SET_NO = 999
REV_AT_EPOCH   = 74280
BSTAR          = .32908E-3
MEAN_MOTION_DOT = .3592E-4
MEAN_MOTION_DDOT = 0

CCSDS_OMM_VERS = 2.0
CREATION_DATE  = 
ORIGINATOR     = 

OBJECT_NAME    = SHIJIAN-16 (SJ-16)
OBJECT_ID      = 2013-057A
CENTER_NAME    = EARTH
REF_FRAME      = TEME
TIME_SYSTEM    = UTC
MEAN_ELEMENT_THEORY = SGP/SGP4

EPOCH          = 2026-02-01T13:26:47.278752
MEAN_MOTION    = 14.92221665
ECCENTRICITY   = .001721
INCLINATION    = 74.9713
RA_OF_ASC_NODE = 253.4808
ARG_OF_PERICENTER = 201.9180
MEAN_ANOMALY   = 158.1275

EPHEMERIS_TYPE = 0
CLASSIFICATION_TYPE = U
NORAD_CAT_ID   = 39358
ELEMENT_SET_NO = 999
REV_AT_EPOCH   = 66611
BSTAR          = .16155E-3
MEAN_MOTION_DOT = .1622E-4
MEAN_MOTION_DDOT = 0

